[{"OBJECT_NAME":"QIANFAN-35","OBJECT_ID":"2024-185S","EPOCH":"2026-03-09T22:26:33.581760","MEAN_MOTION":14.28128705,"ECCENTRICITY":0.00069627,"INCLINATION":88.9749,"RA_OF_ASC_NODE":66.6226,"ARG_OF_PERICENTER":20.1226,"MEAN_ANOMALY":340.0242,"EPHEMERIS_TYPE":0,"CLASSIFICATION_TYPE":"U","NORAD_CAT_ID":61568,"ELEMENT_SET_NO":999,"REV_AT_EPOCH":8262,"BSTAR":0.00043408229,"MEAN_MOTION_DOT":1.093e-5,"MEAN_MOTION_DDOT":0},{"OBJECT_NAME":"METEOR 2-7 DEB","OBJECT_ID":"1981-043X","EPOCH":"2026-03-09T22:53:37.531104","MEAN_MOTION":14.33438714,"ECCENTRICITY":0.00305108,"INCLINATION":81.2555,"RA_OF_ASC_NODE":156.6374,"ARG_OF_PERICENTER":303.2379,"MEAN_ANOMALY":56.5881,"EPHEMERIS_TYPE":0,"CLASSIFICATION_TYPE":"U","NORAD_CAT_ID":43300,"ELEMENT_SET_NO":999,"REV_AT_EPOCH":54107,"BSTAR":0.0026040384,"MEAN_MOTION_DOT":7.24e-5,"MEAN_MOTION_DDOT":0}]
